{
  "signature": { "source": "NASA/JPL Small-Body Database (SBDB) API", "version": "1.3" },
  "object": {
    "neo": false,
    "pha": false,
    "orbit_class": { "code": "HAL", "name": "Halley-type Comet" },
    "spkid": "1000036",
    "des": "1P",
    "orbit_id": "J863/77",
    "fullname": "1P/Halley",
    "kind": "cn",
    "shortname": "1P/Halley"
  },
  "orbit": {
    "epoch": "2449400.5",
    "soln_date": "2024-11-02 05:12:00",
    "moid": "0.0744",
    "condition_code": "3",
    "data_arc": "26443",
    "n_obs_used": 8518,
    "first_obs": "1835-08-21",
    "last_obs": "1994-01-11",
    "rms": "1.2",
    "elements": [
      { "name": "e", "value": "0.9671", "units": null, "title": "eccentricity" },
      { "name": "a", "value": "17.834", "units": "au", "title": "semi-major axis" },
      { "name": "q", "value": "0.5859", "units": "au", "title": "perihelion distance" },
      { "name": "i", "value": "162.26", "units": "deg", "title": "inclination" },
      { "name": "om", "value": "58.42", "units": "deg", "title": "longitude of the ascending node" },
      { "name": "w", "value": "111.33", "units": "deg", "title": "argument of perihelion" },
      { "name": "ma", "value": "11.27", "units": "deg", "title": "mean anomaly" },
      { "name": "tp", "value": "2446470.5", "units": "TDB", "title": "time of perihelion passage" },
      { "name": "per", "value": "27510.0", "units": "d", "title": "sidereal orbital period" },
      { "name": "ad", "value": "35.08", "units": "au", "title": "aphelion distance" },
      { "name": "n", "value": "0.0131", "units": "deg/d", "title": "mean motion" }
    ]
  },
  "phys_par": [
    { "name": "diameter", "value": "11.0", "units": "km", "title": "diameter" }
  ]
}
